KUIPER-00133            
1 65764U 25217C   25298.50003471  .00071723  00000+0  24962-2 0  9995
2 65764  51.8689 298.1926 0007723 219.3499 259.7612 15.29011023  5258
KUIPER-00139            
1 65765U 25217D   25298.38660101  .00036340  00000+0  10386-2 0  9992
2 65765  51.8675 298.4164 0005560 211.2076 148.8581 15.35633108  4602
KUIPER-00142            
1 65766U 25217E   25298.29905934  .00038544  00000+0  10615-2 0  9992
2 65766  51.8695 298.5895 0002984 156.8276 203.2845 15.36769741  4591
KUIPER-00145            
1 65767U 25217F   25298.43269066  .00052181  00000+0  14423-2 0  9992
2 65767  51.8712 297.9851 0003322 183.4537 176.6427 15.36518916  4618
KUIPER-00147            
1 65768U 25217G   25298.38484110  .00053243  00000+0  15082-2 0  9998
2 65768  51.8658 298.4018 0005831 202.3609 157.7123 15.35734968  4605
KUIPER-00148            
1 65769U 25217H   25298.46411689  .00034636  00000+0  10129-2 0  9991
2 65769  51.8614 298.1668 0009279 218.5753 141.4571 15.34908670  4615
KUIPER-00150            
1 65770U 25217J   25298.50003471 -.00427850  00000+0 -13951-1 0  9995
2 65770  51.8619 297.9764 0008960 214.6675 349.7728 15.33000829  4178
KUIPER-00151            
1 65771U 25217K   25298.50152672  .00032713  00000+0  91293-3 0  9999
2 65771  51.8694 297.6942 0004727 181.0568 179.0409 15.36431965  4624
